STARLINK-1624           
1 46130U 20057P   21256.77950170 -.00000810  00000-0 -35504-4 0  9992
2 46130  53.0542  69.4884 0001576  98.0407 262.0761 15.06397561 61005
STARLINK-1625           
1 46131U 20057Q   21256.85875128 -.00000495  00000-0 -14357-4 0  9993
2 46131  53.0551  89.1328 0001972  86.0147 274.1068 15.06389803 60144
STARLINK-1630           
1 46132U 20057R   21256.89745036 -.00000334  00000-0 -35288-5 0  9991
2 46132  53.0543 108.9587 0001767  81.8407 278.2782 15.06392905 60478
STARLINK-1637           
1 46133U 20057S   21256.89745384 -.00000839  00000-0 -37452-4 0  9992
2 46133  53.0557  68.9623 0001615  95.4217 264.6956 15.06390159 60439
STARLINK-1638           
1 46134U 20057T   21256.90113891 -.00000486  00000-0 -13695-4 0  9998
2 46134  53.0557  68.9506 0001796  94.7515 265.3679 15.06396015 59775
STARLINK-1639           
1 46135U 20057U   21256.91587826 -.00000732  00000-0 -30274-4 0  9999
2 46135  53.0546  68.8726 0001770  92.6156 267.5036 15.06397842 60432
STARLINK-1643           
1 46136U 20057V   21256.89838040  .00002936  00000-0  21593-3 0  9993
2 46136  53.0548  98.9617 0001738  83.6648 276.4539 15.06397403 59357
STARLINK-1586           
1 46137U 20057W   21256.91772662 -.00000764  00000-0 -32370-4 0  9999
2 46137  53.0536  88.8655 0002013  83.6630 276.4588 15.06394110 59494
STARLINK-1590           
1 46138U 20057X   21256.78320074 -.00002221  00000-0 -13032-3 0  9994
2 46138  53.0542 109.4673 0002080  80.7108 279.4116 15.06381393 59190
STARLINK-1594           
1 46140U 20057Z   21256.67629698 -.00000837  00000-0 -37298-4 0  9991
2 46140  53.0551  69.9578 0001659 104.0839 256.0334 15.06389185 61002
STARLINK-1596           
1 46141U 20057AA  21256.85322244 -.00000695  00000-0 -27763-4 0  9997
2 46141  53.0562  69.1634 0001853 103.2000 256.9196 15.06389857 59768
STARLINK-1597           
1 46142U 20057AB  21257.07068860  .00000041  00000-0  21638-4 0  9992
2 46142  53.0557 108.1727 0001842  87.1757 272.9442 15.06397466 59898
STARLINK-1599           
1 46143U 20057AC  21256.70762280  .00000063  00000-0  23160-4 0  9995
2 46143  53.0546  89.8116 0001712  97.2623 262.8561 15.06391597 59466
STARLINK-1606           
1 46144U 20057AD  21256.90298401 -.00000782  00000-0 -33601-4 0  9998
2 46144  53.0545  88.9323 0001871  75.6449 284.4748 15.06386022 60161
STARLINK-1607           
1 46145U 20057AE  21257.08353038  .00174806  00000-0  80560-3 0  9999
2 46145  53.0533  66.0017 0001126  56.4137 303.6993 15.82562791 60495
STARLINK-1608           
1 46146U 20057AF  21257.01540557 -.00000506  00000-0 -15090-4 0  9991
2 46146  53.0551 108.4366 0002071  88.7982 271.3244 15.06389574 59894
STARLINK-1611           
1 46147U 20057AG  21256.73158353  .00001461  00000-0  11699-3 0  9998
2 46147  53.0547 109.7083 0001896  77.2763 282.8438 15.06399504 60443
STARLINK-1616           
1 46148U 20057AH  21256.73711329 -.00000601  00000-0 -21451-4 0  9992
2 46148  53.0529  89.6747 0001830  88.0005 272.1193 15.06394240 59466
STARLINK-1620           
1 46149U 20057AJ  21256.68551260 -.00001144  00000-0 -57910-4 0  9995
2 46149  53.0537  89.9122 0002011  84.7302 275.3917 15.06391412 60730
STARLINK-1629           
1 46150U 20057AK  21256.74631689 -.00000570  00000-0 -19361-4 0  9998
2 46150  53.0540 109.6293 0001956  85.3411 274.7801 15.06401903 59190
STARLINK-1631           
1 46151U 20057AL  21256.85506887 -.00000524  00000-0 -16268-4 0  9994
2 46151  53.0559  89.1538 0001982  85.7338 274.3878 15.06387632 59480
STARLINK-1634           
1 46152U 20057AM  21256.70578219 -.00000667  00000-0 -25861-4 0  9994
2 46152  53.0543 109.8171 0001983  81.8909 278.2305 15.06391194 59182
STARLINK-1636           
1 46153U 20057AN  21256.80713754  .00001064  00000-0  90299-4 0  9998
2 46153  53.0547  89.3645 0001861  83.7806 276.3395 15.06402621 60130
STARLINK-1642           
1 46154U 20057AP  21257.01632693 -.00000666  00000-0 -25830-4 0  9993
2 46154  53.0547  98.4236 0002034  83.1756 276.9465 15.06389201 60029
STARLINK-1667           
1 46155U 20057AQ  21256.90851395 -.00000870  00000-0 -39498-4 0  9995
2 46155  53.0557  68.9113 0001925  88.8259 271.2951 15.06391836 61010
STARLINK-1545           
1 46156U 20057AR  21256.70024809  .00001220  00000-0  10077-3 0  9995
2 46156  53.0553  89.8485 0002037  81.5848 278.5372 15.06399787 60716
STARLINK-1587           
1 46157U 20057AS  21256.88638508  .00000808  00000-0  73137-4 0  9990
2 46157  53.0532  69.0044 0001670  86.2845 273.8335 15.06397851 59777
STARLINK-1589           
1 46158U 20057AT  21256.88270550  .00000680  00000-0  64572-4 0  9991
2 46158  53.0545  69.0230 0001846  94.7037 265.4163 15.06392039 61032
STARLINK-1595           
1 46159U 20057AU  21256.72421219 -.00001105  00000-0 -55308-4 0  9997
2 46159  53.0558 109.7411 0002012  85.5535 274.5683 15.06391211 60440
STARLINK-1598           
1 46160U 20057AV  21257.04673194 -.00000857  00000-0 -38661-4 0  9992
2 46160  53.0538  88.2874 0001901  82.5024 277.6180 15.06391350 60170
STARLINK-1600           
1 46161U 20057AW  21256.89191904 -.00000894  00000-0 -41133-4 0  9998
2 46161  53.0539  88.9813 0002100  84.4981 275.6248 15.06398719 60749
STARLINK-1603           
1 46162U 20057AX  21256.76291512 -.00000820  00000-0 -36162-4 0  9996
2 46162  53.0541  89.5585 0001634  93.9716 266.1460 15.06389526 60149
STARLINK-1610           
1 46163U 20057AY  21256.69472728  .00000872  00000-0  77461-4 0  9991
2 46163  53.0556  69.8692 0002169  87.3273 272.7964 15.06393095 59747
STARLINK-1612           
1 46164U 20057AZ  21256.89007302  .00000901  00000-0  79384-4 0  9995
2 46164  53.0559  69.0012 0002125  87.0778 273.0455 15.06402279 61037
STARLINK-1613           
1 46165U 20057BA  21256.90113391 -.00000334  00000-0 -35366-5 0  9999
2 46165  53.0548 108.9479 0001668  82.7858 277.3320 15.06398555 59214
STARLINK-1615           
1 46166U 20057BB  21257.07436774 -.00000685  00000-0 -27076-4 0  9999
2 46166  53.0541 108.1570 0001930  87.0476 273.0734 15.06398635 59905
STARLINK-1626           
1 46167U 20057BC  21256.89007151  .00001247  00000-0  10265-3 0  9996
2 46167  53.0547 108.9917 0002179  74.4484 285.6746 15.06397918 59219
STARLINK-1627           
1 46168U 20057BD  21256.72787027  .00001452  00000-0  11638-3 0  9999
2 46168  53.0546  59.7161 0001928 101.1227 258.9979 15.06395577 59880
STARLINK-1628           
1 46169U 20057BE  21257.02453064 -.00000361  00000-0 -55928-5 0  9997
2 46169  52.9995 108.3804 0001827  83.2160 276.9036 15.05586099 59879
STARLINK-1632           
1 46170U 20057BF  21255.73910243  .21004112  12485-4  21929-2 0  9996
2 46170  53.0410  22.6696 0014120 336.1409  24.3424 16.36550410 60970
STARLINK-1633           
1 46171U 20057BG  21256.73341940  .00001007  00000-0  86529-4 0  9992
2 46171  53.0540  89.6935 0001836  85.9811 274.1388 15.06394634 60727
STARLINK-1635           
1 46172U 20057BH  21257.01355120 -.00000736  00000-0 -30472-4 0  9996
2 46172  53.0569  88.4374 0001963  94.7825 265.3388 15.06398787 60160
STARLINK-1640           
1 46173U 20057BJ  21256.72789023  .00000968  00000-0  83885-4 0  9998
2 46173  53.0543 109.7186 0002005  82.3051 277.8166 15.06393193 59181
STARLINK-1641           
1 46174U 20057BK  21256.80161353 -.00000786  00000-0 -33857-4 0  9992
2 46174  53.0546 109.3790 0001822  82.9936 277.1260 15.06394750 59195
SKYSAT-C17              
1 46179U 20057BQ  21256.81821896  .00012525  00000-0  16214-3 0  9992
2 46179  52.9990 326.5022 0006779 263.9999  96.0240 15.59324429 62091
SKYSAT-C18              
1 46180U 20057BR  21256.80383811  .00011474  00000-0  15516-3 0  9999
2 46180  52.9940 326.9355 0012289  98.9594 261.2809 15.58204025 60791
2020-058A               
1 46232U 20058A   21257.12566153  .00000715  00000-0  32851-4 0  9994
2 46232  97.4498 309.1993 0013853 355.3223  56.9142 15.23574809 58922
2020-058B               
1 46233U 20058B   21257.20030900  .00001509  00000-0  63729-4 0  9990
2 46233  97.4507 309.7203 0015936 357.3623  74.6012 15.24729314 58954
2020-058C               
1 46234U 20058C   21257.22468723  .00000858  00000-0  37803-4 0  9991
2 46234  97.4504 309.6744 0016101 356.7848  74.1888 15.24468034 58953
SKYSAT-C19              
1 46235U 20057BS  21256.44863621  .00010691  00000-0  14708-3 0  9994
2 46235  52.9960 326.9041 0006005 189.9041 170.1853 15.57879700 60764
SAOCOM 1B               
1 46265U 20059A   21257.25573530  .00000036  00000-0  11069-4 0  9996
2 46265  97.8897  81.9731 0001424  78.0148 282.1212 14.82157703 56211
GNOMES-1                
1 46266U 20059B   21256.67650531  .00000352  00000-0  44318-4 0  9993
2 46266  97.8862  84.3481 0005083 357.5439   2.5751 14.88113985 56319
TYVAK-0172              
1 46267U 20059C   21256.77741941  .00000900  00000-0  10244-3 0  9990
2 46267  97.8735  84.0706 0006353   0.3302 359.7918 14.88677158 56330
RLFL14                  
1 46268U 20060A   21256.99910707  .00001197  00000-0  87165-4 0  9991
2 46268  45.1052 121.7689 0011367 234.3762 125.6063 15.10226632 57265
CAPELLA-2               
1 46269U 20060B   21256.89549657  .00005365  00000-0  32195-3 0  9996
2 46269  45.1017 120.2654 0007541 243.0316 116.9800 15.11970483 57278
NUSAT-6 (HYPATIA)       
1 46272U 20061A   21256.88952132  .00001833  00000-0  82383-4 0  9997
2 46272  97.3631 328.7938 0006833 338.8133  21.2811 15.22374737 57122
ESAIL                   
1 46273U 20061B   21256.90175179  .00001510  00000-0  82270-4 0  9996
2 46273  97.4318 328.6195 0006957  24.9058 335.2508 15.15903026 56914
ION-MK01                
1 46274U 20061C   21256.78892237  .00000935  00000-0  52499-4 0  9994
2 46274  97.4299 328.4689 0006666  24.7402 335.4149 15.15697266 56893
ATHENA                  
1 46275U 20061D   21257.13573595  .00000700  00000-0  39435-4 0  9993
2 46275  97.4256 329.0092 0002639  70.2850 289.8667 15.16377210 56972
